start=new Date('2022-11-18T00:00:00.000Z').valueOf();
sats=[{"REV_AT_EPOCH":"11436","TLE_LINE2":"2 46798  53.0552   0.4730 0001547  58.4504 301.6635 15.06393655114365","NORAD_CAT_ID":"46798","MEAN_MOTION":"15.06393655","BSTAR":"0.00004168800000","SITE":"AFETR","OBJECT_NAME":"STARLINK-1948","ARG_OF_PERICENTER":"58.4504","OBJECT_ID":"2020-074BM","PERIOD":"95.593","CENTER_NAME":"EARTH","DECAY_DATE":null,"LAUNCH_DATE":"2020-10-24","TIME_SYSTEM":"UTC","COUNTRY_CODE":"US","SEMIMAJOR_AXIS":"6925.368","MEAN_MOTION_DOT":"0.00000339","RCS_SIZE":"LARGE","PERIAPSIS":"546.162","RA_OF_ASC_NODE":"0.4730","MEAN_ELEMENT_THEORY":"SGP4","INCLINATION":"53.0552","MEAN_MOTION_DDOT":"0.0000000000000","EPHEMERIS_TYPE":"0","ELEMENT_SET_NO":"999","TLE_LINE1":"1 46798U 20074BM  22321.48351289  .00000339  00000-0  41688-4 0  9993","CLASSIFICATION_TYPE":"U","ECCENTRICITY":"0.00015470","MEAN_ANOMALY":"301.6635","FILE":"3661693","EPOCH":"2022-11-17T11:36:15.513696","REF_FRAME":"TEME","OBJECT_TYPE":"PAYLOAD","GP_ID":"218062408","APOAPSIS":"548.304"},{"MEAN_ELEMENT_THEORY":"SGP4","RA_OF_ASC_NODE":"325.3679","INCLINATION":"53.0551","MEAN_MOTION_DDOT":"0.0000000000000","COUNTRY_CODE":"US","SEMIMAJOR_AXIS":"6925.365","MEAN_MOTION_DOT":"-0.00000209","TIME_SYSTEM":"UTC","DECAY_DATE":null,"LAUNCH_DATE":"2020-11-25","CENTER_NAME":"EARTH","PERIAPSIS":"546.079","RCS_SIZE":"LARGE","EPOCH":"2022-11-17T12:06:09.009216","FILE":"3661693","OBJECT_TYPE":"PAYLOAD","GP_ID":"218063945","APOAPSIS":"548.381","REF_FRAME":"TEME","ECCENTRICITY":"0.00016620","MEAN_ANOMALY":"305.6092","EPHEMERIS_TYPE":"0","TLE_LINE1":"1 47122U 20088A   22321.50427094 -.00000209  00000-0  48911-5 0  9995","ELEMENT_SET_NO":"999","CLASSIFICATION_TYPE":"U","REV_AT_EPOCH":"10973","TLE_LINE2":"2 47122  53.0551 325.3679 0001662  54.5051 305.6092 15.06394518109734","ARG_OF_PERICENTER":"54.5051","OBJECT_ID":"2020-088A","SITE":"AFETR","OBJECT_NAME":"STARLINK-1777","PERIOD":"95.592","MEAN_MOTION":"15.06394518","NORAD_CAT_ID":"47122","BSTAR":"0.00000489110000"},{"REV_AT_EPOCH":"10970","TLE_LINE2":"2 47124  53.0554 329.2607 0001606  59.0774 301.0372 15.06402603109706","PERIOD":"95.592","OBJECT_NAME":"STARLINK-1785","SITE":"AFETR","OBJECT_ID":"2020-088C","ARG_OF_PERICENTER":"59.0774","BSTAR":"0.00030974000000","NORAD_CAT_ID":"47124","MEAN_MOTION":"15.06402603","MEAN_MOTION_DDOT":"0.0000000000000","INCLINATION":"53.0554","RA_OF_ASC_NODE":"329.2607","MEAN_ELEMENT_THEORY":"SGP4","RCS_SIZE":"LARGE","PERIAPSIS":"546.093","LAUNCH_DATE":"2020-11-25","DECAY_DATE":null,"TIME_SYSTEM":"UTC","CENTER_NAME":"EARTH","MEAN_MOTION_DOT":"0.00004335","COUNTRY_CODE":"US","SEMIMAJOR_AXIS":"6925.341","REF_FRAME":"TEME","APOAPSIS":"548.318","GP_ID":"218095364","OBJECT_TYPE":"PAYLOAD","FILE":"3661914","EPOCH":"2022-11-17T18:09:04.173984","CLASSIFICATION_TYPE":"U","TLE_LINE1":"1 47124U 20088C   22321.75629831  .00004335  00000-0  30974-3 0  9998","ELEMENT_SET_NO":"999","EPHEMERIS_TYPE":"0","MEAN_ANOMALY":"301.0372","ECCENTRICITY":"0.00016060"},{"MEAN_ELEMENT_THEORY":"SGP4","RA_OF_ASC_NODE":"324.3560","INCLINATION":"53.0549","MEAN_MOTION_DDOT":"0.0000000000000","COUNTRY_CODE":"US","SEMIMAJOR_AXIS":"6925.334","MEAN_MOTION_DOT":"0.00002814","DECAY_DATE":null,"CENTER_NAME":"EARTH","LAUNCH_DATE":"2020-11-25","TIME_SYSTEM":"UTC","PERIAPSIS":"545.946","RCS_SIZE":"LARGE","EPOCH":"2022-11-17T17:29:55.195584","FILE":"3661914","OBJECT_TYPE":"PAYLOAD","APOAPSIS":"548.453","GP_ID":"218094121","REF_FRAME":"TEME","ECCENTRICITY":"0.00018100","MEAN_ANOMALY":"307.7723","EPHEMERIS_TYPE":"0","ELEMENT_SET_NO":"999","TLE_LINE1":"1 47126U 20088E   22321.72911106  .00002814  00000-0  20771-3 0  9990","CLASSIFICATION_TYPE":"U","REV_AT_EPOCH":"10977","TLE_LINE2":"2 47126  53.0549 324.3560 0001810  52.3430 307.7723 15.06404712109771","ARG_OF_PERICENTER":"52.3430","OBJECT_ID":"2020-088E","SITE":"AFETR","OBJECT_NAME":"STARLINK-1812","PERIOD":"95.592","MEAN_MOTION":"15.06404712","NORAD_CAT_ID":"47126","BSTAR":"0.00020771000000"},{"MEAN_MOTION_DDOT":"0.0000000000000","INCLINATION":"53.0556","RA_OF_ASC_NODE":"305.4463","MEAN_ELEMENT_THEORY":"SGP4","RCS_SIZE":"LARGE","PERIAPSIS":"545.940","DECAY_DATE":null,"LAUNCH_DATE":"2020-11-25","CENTER_NAME":"EARTH","TIME_SYSTEM":"UTC","MEAN_MOTION_DOT":"0.00001887","COUNTRY_CODE":"US","SEMIMAJOR_AXIS":"6925.347","REF_FRAME":"TEME","APOAPSIS":"548.484","GP_ID":"218070368","OBJECT_TYPE":"PAYLOAD","FILE":"3661778","EPOCH":"2022-11-17T11:42:16.409088","CLASSIFICATION_TYPE":"U","TLE_LINE1":"1 47128U 20088G   22321.48768992  .00001887  00000-0  14553-3 0  9998","ELEMENT_SET_NO":"999","EPHEMERIS_TYPE":"0","ECCENTRICITY":"0.00018370","MEAN_ANOMALY":"298.7899","TLE_LINE2":"2 47128  53.0556 305.4463 0001837  61.3275 298.7899 15.06400473110314","REV_AT_EPOCH":"11031","PERIOD":"95.592","OBJECT_NAME":"STARLINK-1837","SITE":"AFETR","OBJECT_ID":"2020-088G","ARG_OF_PERICENTER":"61.3275","BSTAR":"0.00014553000000","NORAD_CAT_ID":"47128","MEAN_MOTION":"15.06400473"},{"MEAN_MOTION_DOT":"0.00001101","SEMIMAJOR_AXIS":"6925.359","COUNTRY_CODE":"US","LAUNCH_DATE":"2020-11-25","DECAY_DATE":null,"CENTER_NAME":"EARTH","TIME_SYSTEM":"UTC","PERIAPSIS":"545.987","RCS_SIZE":"LARGE","MEAN_ELEMENT_THEORY":"SGP4","RA_OF_ASC_NODE":"316.2209","MEAN_MOTION_DDOT":"0.0000000000000","INCLINATION":"53.0564","MEAN_ANOMALY":"313.2328","ECCENTRICITY":"0.00017850","TLE_LINE1":"1 47129U 20088H   22321.31720694  .00001101  00000-0  92843-4 0  9996","ELEMENT_SET_NO":"999","CLASSIFICATION_TYPE":"U","EPHEMERIS_TYPE":"0","EPOCH":"2022-11-17T07:36:46.679616","FILE":"3661693","GP_ID":"218063446","APOAPSIS":"548.460","OBJECT_TYPE":"PAYLOAD","REF_FRAME":"TEME","TLE_LINE2":"2 47129  53.0564 316.2209 0001785  46.8810 313.2328 15.06396733109857","REV_AT_EPOCH":"10985","MEAN_MOTION":"15.06396733","NORAD_CAT_ID":"47129","BSTAR":"0.00009284300000","OBJECT_ID":"2020-088H","ARG_OF_PERICENTER":"46.8810","OBJECT_NAME":"STARLINK-1838","SITE":"AFETR","PERIOD":"95.592"},{"LAUNCH_DATE":"2020-11-25","DECAY_DATE":null,"CENTER_NAME":"EARTH","TIME_SYSTEM":"UTC","MEAN_MOTION_DOT":"0.00032478","SEMIMAJOR_AXIS":"6789.901","COUNTRY_CODE":"US","RCS_SIZE":"LARGE","PERIAPSIS":"409.197","RA_OF_ASC_NODE":"324.9054","MEAN_ELEMENT_THEORY":"SGP4","MEAN_MOTION_DDOT":"0.0000000000000","INCLINATION":"53.0570","TLE_LINE1":"1 47130U 20088J   22321.74483801  .00032478  00000-0  54170-3 0  9992","ELEMENT_SET_NO":"999","CLASSIFICATION_TYPE":"U","EPHEMERIS_TYPE":"0","MEAN_ANOMALY":"298.7775","ECCENTRICITY":"0.00037840","FILE":"3661914","EPOCH":"2022-11-17T17:52:34.004064","REF_FRAME":"TEME","APOAPSIS":"414.335","GP_ID":"218095865","OBJECT_TYPE":"PAYLOAD","TLE_LINE2":"2 47130  53.0570 324.9054 0003784  61.3614 298.7775 15.51699475109767","REV_AT_EPOCH":"10976","NORAD_CAT_ID":"47130","MEAN_MOTION":"15.51699475","BSTAR":"0.00054170000000","OBJECT_NAME":"STARLINK-1839","SITE":"AFETR","OBJECT_ID":"2020-088J","ARG_OF_PERICENTER":"61.3614","PERIOD":"92.801"},{"MEAN_MOTION_DDOT":"0.0000000000000","INCLINATION":"53.0531","MEAN_ELEMENT_THEORY":"SGP4","RA_OF_ASC_NODE":"313.8779","PERIAPSIS":"546.142","RCS_SIZE":"LARGE","MEAN_MOTION_DOT":"0.00002201","COUNTRY_CODE":"US","SEMIMAJOR_AXIS":"6925.350","CENTER_NAME":"EARTH","DECAY_DATE":null,"LAUNCH_DATE":"2020-11-25","TIME_SYSTEM":"UTC","GP_ID":"218094622","APOAPSIS":"548.289","OBJECT_TYPE":"PAYLOAD","REF_FRAME":"TEME","EPOCH":"2022-11-17T20:10:29.228448","FILE":"3661914","MEAN_ANOMALY":"287.4732","ECCENTRICITY":"0.00015500","CLASSIFICATION_TYPE":"U","TLE_LINE1":"1 47133U 20088M   22321.84061607  .00002201  00000-0  16660-3 0  9995","ELEMENT_SET_NO":"999","EPHEMERIS_TYPE":"0","REV_AT_EPOCH":"10992","TLE_LINE2":"2 47133  53.0531 313.8779 0001550  72.6426 287.4732 15.06399436109923","PERIOD":"95.592","OBJECT_ID":"2020-088M","ARG_OF_PERICENTER":"72.6426","OBJECT_NAME":"STARLINK-1843","SITE":"AFETR","BSTAR":"0.00016660000000","MEAN_MOTION":"15.06399436","NORAD_CAT_ID":"47133"},{"BSTAR":"0.00025086000000","MEAN_MOTION":"15.06404974","NORAD_CAT_ID":"47134","PERIOD":"95.592","ARG_OF_PERICENTER":"60.9811","OBJECT_ID":"2020-088N","SITE":"AFETR","OBJECT_NAME":"STARLINK-1844","REV_AT_EPOCH":"10972","TLE_LINE2":"2 47134  53.0551 325.7806 0001632  60.9811 299.1341 15.06404974109726","ECCENTRICITY":"0.00016320","MEAN_ANOMALY":"299.1341","EPHEMERIS_TYPE":"0","CLASSIFICATION_TYPE":"U","TLE_LINE1":"1 47134U 20088N   22321.41580854  .00003457  00000-0  25086-3 0  9995","ELEMENT_SET_NO":"999","OBJECT_TYPE":"PAYLOAD","APOAPSIS":"548.329","GP_ID":"218064680","REF_FRAME":"TEME","EPOCH":"2022-11-17T09:58:45.857856","FILE":"3661693","PERIAPSIS":"546.068","RCS_SIZE":"LARGE","COUNTRY_CODE":"US","SEMIMAJOR_AXIS":"6925.333","MEAN_MOTION_DOT":"0.00003457","CENTER_NAME":"EARTH","DECAY_DATE":null,"LAUNCH_DATE":"2020-11-25","TIME_SYSTEM":"UTC","INCLINATION":"53.0551","MEAN_MOTION_DDOT":"0.0000000000000","MEAN_ELEMENT_THEORY":"SGP4","RA_OF_ASC_NODE":"325.7806"},{"REV_AT_EPOCH":"10990","TLE_LINE2":"2 47135  53.0546 314.4973 0001927  59.8468 300.2712 15.06406280109901","MEAN_MOTION":"15.06406280","NORAD_CAT_ID":"47135","BSTAR":"0.00033389000000","OBJECT_ID":"2020-088P","ARG_OF_PERICENTER":"59.8468","OBJECT_NAME":"STARLINK-1845","SITE":"AFETR","PERIOD":"95.592","MEAN_MOTION_DOT":"0.00004696","SEMIMAJOR_AXIS":"6925.329","COUNTRY_CODE":"US","LAUNCH_DATE":"2020-11-25","DECAY_DATE":null,"CENTER_NAME":"EARTH","TIME_SYSTEM":"UTC","PERIAPSIS":"545.860","RCS_SIZE":"LARGE","MEAN_ELEMENT_THEORY":"SGP4","RA_OF_ASC_NODE":"314.4973","MEAN_MOTION_DDOT":"0.0000000000000","INCLINATION":"53.0546","MEAN_ANOMALY":"300.2712","ECCENTRICITY":"0.00019270","TLE_LINE1":"1 47135U 20088P   22321.70054669  .00004696  00000-0  33389-3 0  9999","ELEMENT_SET_NO":"999","CLASSIFICATION_TYPE":"U","EPHEMERIS_TYPE":"0","EPOCH":"2022-11-17T16:48:47.234016","FILE":"3661914","GP_ID":"218095623","APOAPSIS":"548.529","OBJECT_TYPE":"PAYLOAD","REF_FRAME":"TEME"}];
